{"fetched_at":"2026-07-17T06:38:18.454Z","source":"https://celestrak.org/NORAD/elements/gp.php?NAME=HULIANWANG&FORMAT=JSON","constellation":"guowang","records":[{"OBJECT_NAME":"HULIANWANG DIGUI-12","OBJECT_ID":"2025-030B","EPOCH":"2026-07-16T20:44:47.478624","CLASSIFICATION_TYPE":"U","MEAN_MOTION":13.29322306,"ECCENTRICITY":0.0000944,"INCLINATION":50.0016,"RA_OF_ASC_NODE":129.5115,"ARG_OF_PERICENTER":277.6354,"MEAN_ANOMALY":82.4411,"EPHEMERIS_TYPE":0,"NORAD_CAT_ID":62972,"ELEMENT_SET_NO":999,"REV_AT_EPOCH":6980,"BSTAR":0.000052101,"MEAN_MOTION_DOT":-0.000001,"MEAN_MOTION_DDOT":0},{"OBJECT_NAME":"HULIANWANG DIGUI-13","OBJECT_ID":"2025-030C","EPOCH":"2026-07-16T18:32:20.453280","CLASSIFICATION_TYPE":"U","MEAN_MOTION":13.29324515,"ECCENTRICITY":0.0000755,"INCLINATION":50.0019,"RA_OF_ASC_NODE":129.7092,"ARG_OF_PERICENTER":277.9518,"MEAN_ANOMALY":82.1268,"EPHEMERIS_TYPE":0,"NORAD_CAT_ID":62973,"ELEMENT_SET_NO":999,"REV_AT_EPOCH":6979,"BSTAR":0.000058698,"MEAN_MOTION_DOT":-9.7e-7,"MEAN_MOTION_DDOT":0},{"OBJECT_NAME":"HULIANWANG DIGUI-14","OBJECT_ID":"2025-030D","EPOCH":"2026-07-16T19:44:35.938752","CLASSIFICATION_TYPE":"U","MEAN_MOTION":13.29327492,"ECCENTRICITY":0.0000755,"INCLINATION":50.0024,"RA_OF_ASC_NODE":129.3323,"ARG_OF_PERICENTER":281.976,"MEAN_ANOMALY":78.1027,"EPHEMERIS_TYPE":0,"NORAD_CAT_ID":62974,"ELEMENT_SET_NO":999,"REV_AT_EPOCH":6980,"BSTAR":0.000033058,"MEAN_MOTION_DOT":-0.00000109,"MEAN_MOTION_DDOT":0},{"OBJECT_NAME":"HULIANWANG DIGUI-15","OBJECT_ID":"2025-030E","EPOCH":"2026-07-16T20:08:36.447936","CLASSIFICATION_TYPE":"U","MEAN_MOTION":13.29324515,"ECCENTRICITY":0.0000844,"INCLINATION":50.002,"RA_OF_ASC_NODE":129.3992,"ARG_OF_PERICENTER":281.113,"MEAN_ANOMALY":78.9648,"EPHEMERIS_TYPE":0,"NORAD_CAT_ID":62975,"ELEMENT_SET_NO":999,"REV_AT_EPOCH":6980,"BSTAR":0.000048027,"MEAN_MOTION_DOT":-0.00000102,"MEAN_MOTION_DDOT":0},{"OBJECT_NAME":"HULIANWANG DIGUI-16","OBJECT_ID":"2025-030F","EPOCH":"2026-07-16T21:20:56.609376","CLASSIFICATION_TYPE":"U","MEAN_MOTION":13.29325584,"ECCENTRICITY":0.0000722,"INCLINATION":50.0042,"RA_OF_ASC_NODE":129.0896,"ARG_OF_PERICENTER":280.4344,"MEAN_ANOMALY":79.6447,"EPHEMERIS_TYPE":0,"NORAD_CAT_ID":62976,"ELEMENT_SET_NO":999,"REV_AT_EPOCH":6981,"BSTAR":0.000041807,"MEAN_MOTION_DOT":-0.00000105,"MEAN_MOTION_DDOT":0},{"OBJECT_NAME":"HULIANWANG DIGUI-17","OBJECT_ID":"2025-030G","EPOCH":"2026-07-16T21:08:46.297824","CLASSIFICATION_TYPE":"U","MEAN_MOTION":13.29325685,"ECCENTRICITY":0.0000839,"INCLINATION":50.0054,"RA_OF_ASC_NODE":129.0975,"ARG_OF_PERICENTER":272.6422,"MEAN_ANOMALY":87.4354,"EPHEMERIS_TYPE":0,"NORAD_CAT_ID":62977,"ELEMENT_SET_NO":999,"REV_AT_EPOCH":6981,"BSTAR":0.000046672,"MEAN_MOTION_DOT":-0.00000102,"MEAN_MOTION_DDOT":0},{"OBJECT_NAME":"HULIANWANG DIGUI-18","OBJECT_ID":"2025-030H","EPOCH":"2026-07-16T20:56:42.841248","CLASSIFICATION_TYPE":"U","MEAN_MOTION":13.29327648,"ECCENTRICITY":0.0000877,"INCLINATION":50.0059,"RA_OF_ASC_NODE":129.0685,"ARG_OF_PERICENTER":272.1349,"MEAN_ANOMALY":87.9423,"EPHEMERIS_TYPE":0,"NORAD_CAT_ID":62978,"ELEMENT_SET_NO":999,"REV_AT_EPOCH":6981,"BSTAR":0.000051995,"MEAN_MOTION_DOT":-0.000001,"MEAN_MOTION_DDOT":0},{"OBJECT_NAME":"HULIANWANG DIGUI-19","OBJECT_ID":"2025-030J","EPOCH":"2026-07-16T19:56:46.089600","CLASSIFICATION_TYPE":"U","MEAN_MOTION":13.29319089,"ECCENTRICITY":0.0000763,"INCLINATION":50.0044,"RA_OF_ASC_NODE":129.4538,"ARG_OF_PERICENTER":270.7752,"MEAN_ANOMALY":89.3033,"EPHEMERIS_TYPE":0,"NORAD_CAT_ID":62979,"ELEMENT_SET_NO":999,"REV_AT_EPOCH":6980,"BSTAR":0.000034848,"MEAN_MOTION_DOT":-0.00000108,"MEAN_MOTION_DDOT":0},{"OBJECT_NAME":"HULIANWANG DIGUI-20","OBJECT_ID":"2025-086A","EPOCH":"2026-07-16T18:58:43.524192","CLASSIFICATION_TYPE":"U","MEAN_MOTION":13.24411597,"ECCENTRICITY":0.0002061,"INCLINATION":86.5067,"RA_OF_ASC_NODE":303.1626,"ARG_OF_PERICENTER":112.2678,"MEAN_ANOMALY":247.8675,"EPHEMERIS_TYPE":0,"NORAD_CAT_ID":63687,"ELEMENT_SET_NO":999,"REV_AT_EPOCH":5879,"BSTAR":0.00010328,"MEAN_MOTION_DOT":5.9e-7,"MEAN_MOTION_DDOT":0},{"OBJECT_NAME":"HULIANWANG DIGUI-21","OBJECT_ID":"2025-086B","EPOCH":"2026-07-16T19:09:38.856096","CLASSIFICATION_TYPE":"U","MEAN_MOTION":13.24410272,"ECCENTRICITY":0.0001999,"INCLINATION":86.5095,"RA_OF_ASC_NODE":303.2258,"ARG_OF_PERICENTER":115.4522,"MEAN_ANOMALY":244.6819,"EPHEMERIS_TYPE":0,"NORAD_CAT_ID":63688,"ELEMENT_SET_NO":999,"REV_AT_EPOCH":5878,"BSTAR":0.000074428,"MEAN_MOTION_DOT":4.7e-7,"MEAN_MOTION_DDOT":0},{"OBJECT_NAME":"HULIANWANG DIGUI-22","OBJECT_ID":"2025-086C","EPOCH":"2026-07-16T17:31:41.272320","CLASSIFICATION_TYPE":"U","MEAN_MOTION":13.2441059,"ECCENTRICITY":0.0002105,"INCLINATION":86.506,"RA_OF_ASC_NODE":303.1067,"ARG_OF_PERICENTER":111.7572,"MEAN_ANOMALY":248.3786,"EPHEMERIS_TYPE":0,"NORAD_CAT_ID":63689,"ELEMENT_SET_NO":999,"REV_AT_EPOCH":5877,"BSTAR":0.000039785,"MEAN_MOTION_DOT":3.2e-7,"MEAN_MOTION_DDOT":0},{"OBJECT_NAME":"HULIANWANG DIGUI-23","OBJECT_ID":"2025-086D","EPOCH":"2026-07-16T19:42:12.037824","CLASSIFICATION_TYPE":"U","MEAN_MOTION":13.24410336,"ECCENTRICITY":0.0002083,"INCLINATION":86.5102,"RA_OF_ASC_NODE":303.2664,"ARG_OF_PERICENTER":112.2829,"MEAN_ANOMALY":247.8526,"EPHEMERIS_TYPE":0,"NORAD_CAT_ID":63690,"ELEMENT_SET_NO":999,"REV_AT_EPOCH":5878,"BSTAR":0.0000063492,"MEAN_MOTION_DOT":1.7e-7,"MEAN_MOTION_DDOT":0},{"OBJECT_NAME":"HULIANWANG DIGUI-24","OBJECT_ID":"2025-086E","EPOCH":"2026-07-16T19:53:07.830240","CLASSIFICATION_TYPE":"U","MEAN_MOTION":13.24411025,"ECCENTRICITY":0.0002044,"INCLINATION":86.5109,"RA_OF_ASC_NODE":303.2993,"ARG_OF_PERICENTER":114.6576,"MEAN_ANOMALY":245.4771,"EPHEMERIS_TYPE":0,"NORAD_CAT_ID":63691,"ELEMENT_SET_NO":999,"REV_AT_EPOCH":5878,"BSTAR":0.000026503,"MEAN_MOTION_DOT":2.6e-7,"MEAN_MOTION_DDOT":0},{"OBJECT_NAME":"HULIANWANG DIGUI-25","OBJECT_ID":"2025-086F","EPOCH":"2026-07-16T20:04:00.615936","CLASSIFICATION_TYPE":"U","MEAN_MOTION":13.24410352,"ECCENTRICITY":0.0001992,"INCLINATION":86.5047,"RA_OF_ASC_NODE":303.0397,"ARG_OF_PERICENTER":112.2074,"MEAN_ANOMALY":247.9272,"EPHEMERIS_TYPE":0,"NORAD_CAT_ID":63692,"ELEMENT_SET_NO":999,"REV_AT_EPOCH":5878,"BSTAR":0.000059272,"MEAN_MOTION_DOT":4e-7,"MEAN_MOTION_DDOT":0},{"OBJECT_NAME":"HULIANWANG DIGUI-26","OBJECT_ID":"2025-086G","EPOCH":"2026-07-16T19:31:19.634880","CLASSIFICATION_TYPE":"U","MEAN_MOTION":13.24409388,"ECCENTRICITY":0.0002213,"INCLINATION":86.5096,"RA_OF_ASC_NODE":303.2364,"ARG_OF_PERICENTER":117.769,"MEAN_ANOMALY":242.3669,"EPHEMERIS_TYPE":0,"NORAD_CAT_ID":63693,"ELEMENT_SET_NO":999,"REV_AT_EPOCH":5878,"BSTAR":0.000023351,"MEAN_MOTION_DOT":2.5e-7,"MEAN_MOTION_DDOT":0},{"OBJECT_NAME":"HULIANWANG DIGUI-27","OBJECT_ID":"2025-086H","EPOCH":"2026-07-16T20:14:50.896032","CLASSIFICATION_TYPE":"U","MEAN_MOTION":13.24412177,"ECCENTRICITY":0.000206,"INCLINATION":86.5056,"RA_OF_ASC_NODE":303.0838,"ARG_OF_PERICENTER":113.9782,"MEAN_ANOMALY":246.1567,"EPHEMERIS_TYPE":0,"NORAD_CAT_ID":63694,"ELEMENT_SET_NO":999,"REV_AT_EPOCH":5878,"BSTAR":0.000094905,"MEAN_MOTION_DOT":5.5e-7,"MEAN_MOTION_DDOT":0}]}
