HULIANWANG DIGUI-12     
1 62972U 25030B   26197.86443841 -.00000100  00000+0  52101-4 0  9993
2 62972  50.0016 129.5115 0000944 277.6354  82.4411 13.29322306 69809
HULIANWANG DIGUI-13     
1 62973U 25030C   26197.77245895 -.00000097  00000+0  58698-4 0  9995
2 62973  50.0019 129.7092 0000755 277.9518  82.1268 13.29324515 69793
HULIANWANG DIGUI-14     
1 62974U 25030D   26197.82263818 -.00000109  00000+0  33058-4 0  9994
2 62974  50.0024 129.3323 0000755 281.9760  78.1027 13.29327492 69804
HULIANWANG DIGUI-15     
1 62975U 25030E   26197.83931074 -.00000102  00000+0  48027-4 0  9997
2 62975  50.0020 129.3992 0000844 281.1130  78.9648 13.29324515 69805
HULIANWANG DIGUI-16     
1 62976U 25030F   26197.88954409 -.00000105  00000+0  41807-4 0  9992
2 62976  50.0042 129.0896 0000722 280.4344  79.6447 13.29325584 69817
HULIANWANG DIGUI-17     
1 62977U 25030G   26197.88109141 -.00000102  00000+0  46672-4 0  9990
2 62977  50.0054 129.0975 0000839 272.6422  87.4354 13.29325685 69814
HULIANWANG DIGUI-18     
1 62978U 25030H   26197.87271807 -.00000100  00000+0  51995-4 0  9991
2 62978  50.0059 129.0685 0000877 272.1349  87.9423 13.29327648 69816
HULIANWANG DIGUI-19     
1 62979U 25030J   26197.83108900 -.00000108  00000+0  34848-4 0  9997
2 62979  50.0044 129.4538 0000763 270.7752  89.3033 13.29319089 69800
HULIANWANG DIGUI-20     
1 63687U 25086A   26197.79078153  .00000059  00000+0  10328-3 0  9996
2 63687  86.5067 303.1626 0002061 112.2678 247.8675 13.24411597 58796
HULIANWANG DIGUI-21     
1 63688U 25086B   26197.79836639  .00000047  00000+0  74428-4 0  9997
2 63688  86.5095 303.2258 0001999 115.4522 244.6819 13.24410272 58785
HULIANWANG DIGUI-22     
1 63689U 25086C   26197.73033880  .00000032  00000+0  39785-4 0  9990
2 63689  86.5060 303.1067 0002105 111.7572 248.3786 13.24410590 58775
HULIANWANG DIGUI-23     
1 63690U 25086D   26197.82097266  .00000017  00000+0  63492-5 0  9996
2 63690  86.5102 303.2664 0002083 112.2829 247.8526 13.24410336 58789
HULIANWANG DIGUI-24     
1 63691U 25086E   26197.82856285  .00000026  00000+0  26503-4 0  9992
2 63691  86.5109 303.2993 0002044 114.6576 245.4771 13.24411025 58786
HULIANWANG DIGUI-25     
1 63692U 25086F   26197.83611824  .00000040  00000+0  59272-4 0  9997
2 63692  86.5047 303.0397 0001992 112.2074 247.9272 13.24410352 58787
HULIANWANG DIGUI-26     
1 63693U 25086G   26197.81342170  .00000025  00000+0  23351-4 0  9993
2 63693  86.5096 303.2364 0002213 117.7690 242.3669 13.24409388 58785
HULIANWANG DIGUI-27     
1 63694U 25086H   26197.84364463  .00000055  00000+0  94905-4 0  9992
2 63694  86.5056 303.0838 0002060 113.9782 246.1567 13.24412177 58785
